start=new Date('2022-02-15T00:00:00.000Z').valueOf();
sats=[{"OBJECT_ID":"2021-044W","RCS_SIZE":"LARGE","ECCENTRICITY":"0.00016050","MEAN_MOTION_DOT":"0.00019871","PERIAPSIS":"546.088","TLE_LINE1":"1 48658U 21044W   22045.41451488  .00019871  00000-0  13490-2 0  9995","LAUNCH_DATE":"2021-05-26","REV_AT_EPOCH":"3999","MEAN_MOTION_DDOT":"0.0000000000000","CENTER_NAME":"EARTH","OBJECT_TYPE":"PAYLOAD","PERIOD":"95.592","SEMIMAJOR_AXIS":"6925.335","OBJECT_NAME":"STARLINK-2647","FILE":"3300472","BSTAR":"0.00134900000000","MEAN_ELEMENT_THEORY":"SGP4","INCLINATION":"53.0540","ARG_OF_PERICENTER":"45.0489","ELEMENT_SET_NO":"999","SITE":"AFETR","APOAPSIS":"548.311","MEAN_MOTION":"15.06404497","REF_FRAME":"TEME","DECAY_DATE":null,"TLE_LINE2":"2 48658  53.0540 304.7993 0001605  45.0489 315.0630 15.06404497 39995","RA_OF_ASC_NODE":"304.7993","GP_ID":"195938959","EPOCH":"2022-02-14T09:56:54.085632","EPHEMERIS_TYPE":"0","COUNTRY_CODE":"US","TIME_SYSTEM":"UTC","MEAN_ANOMALY":"315.0630","CLASSIFICATION_TYPE":"U","NORAD_CAT_ID":"48658"},{"ELEMENT_SET_NO":"999","ARG_OF_PERICENTER":"78.5959","INCLINATION":"53.0546","MEAN_ELEMENT_THEORY":"SGP4","GP_ID":"195968695","RA_OF_ASC_NODE":"303.3263","TLE_LINE2":"2 48659  53.0546 303.3263 0001507  78.5959 281.5199 15.06378694 40045","DECAY_DATE":null,"MEAN_MOTION":"15.06378694","REF_FRAME":"TEME","APOAPSIS":"548.323","SITE":"AFETR","MEAN_ANOMALY":"281.5199","COUNTRY_CODE":"US","EPHEMERIS_TYPE":"0","TIME_SYSTEM":"UTC","EPOCH":"2022-02-14T17:49:17.774976","NORAD_CAT_ID":"48659","CLASSIFICATION_TYPE":"U","ECCENTRICITY":"0.00015070","RCS_SIZE":"LARGE","OBJECT_ID":"2021-044X","REV_AT_EPOCH":"4004","LAUNCH_DATE":"2021-05-26","TLE_LINE1":"1 48659U 21044X   22045.74256684  .00002173  00000-0  16481-3 0  9994","PERIAPSIS":"546.235","MEAN_MOTION_DOT":"0.00002173","FILE":"3300727","OBJECT_NAME":"STARLINK-2717","PERIOD":"95.593","SEMIMAJOR_AXIS":"6925.414","CENTER_NAME":"EARTH","OBJECT_TYPE":"PAYLOAD","MEAN_MOTION_DDOT":"0.0000000000000","BSTAR":"0.00016481000000"},{"MEAN_ELEMENT_THEORY":"SGP4","INCLINATION":"53.0561","ARG_OF_PERICENTER":"71.3968","ELEMENT_SET_NO":"999","SITE":"AFETR","APOAPSIS":"548.216","MEAN_MOTION":"15.06409854","REF_FRAME":"TEME","DECAY_DATE":null,"TLE_LINE2":"2 48660  53.0561 303.6349 0001491  71.3968 288.7182 15.06409854 40038","RA_OF_ASC_NODE":"303.6349","GP_ID":"195968945","EPOCH":"2022-02-14T16:08:26.138400","TIME_SYSTEM":"UTC","COUNTRY_CODE":"US","EPHEMERIS_TYPE":"0","MEAN_ANOMALY":"288.7182","CLASSIFICATION_TYPE":"U","NORAD_CAT_ID":"48660","OBJECT_ID":"2021-044Y","RCS_SIZE":"LARGE","ECCENTRICITY":"0.00014910","MEAN_MOTION_DOT":"0.00012394","PERIAPSIS":"546.151","TLE_LINE1":"1 48660U 21044Y   22045.67252475  .00012394  00000-0  84925-3 0  9996","REV_AT_EPOCH":"4003","LAUNCH_DATE":"2021-05-26","MEAN_MOTION_DDOT":"0.0000000000000","CENTER_NAME":"EARTH","OBJECT_TYPE":"PAYLOAD","SEMIMAJOR_AXIS":"6925.318","PERIOD":"95.592","OBJECT_NAME":"STARLINK-2688","FILE":"3300727","BSTAR":"0.00084925000000"},{"RCS_SIZE":"LARGE","OBJECT_ID":"2021-044Z","ECCENTRICITY":"0.00017390","MEAN_MOTION_DOT":"0.00008340","PERIAPSIS":"546.036","TLE_LINE1":"1 48661U 21044Z   22045.67345523  .00008340  00000-0  57824-3 0  9998","LAUNCH_DATE":"2021-05-26","REV_AT_EPOCH":"4017","MEAN_MOTION_DDOT":"0.0000000000000","SEMIMAJOR_AXIS":"6925.375","PERIOD":"95.593","CENTER_NAME":"EARTH","OBJECT_TYPE":"PAYLOAD","OBJECT_NAME":"STARLINK-2708","FILE":"3300727","BSTAR":"0.00057824000000","INCLINATION":"53.0562","MEAN_ELEMENT_THEORY":"SGP4","ARG_OF_PERICENTER":"57.2816","ELEMENT_SET_NO":"999","APOAPSIS":"548.445","SITE":"AFETR","REF_FRAME":"TEME","MEAN_MOTION":"15.06391214","DECAY_DATE":null,"RA_OF_ASC_NODE":"293.6261","GP_ID":"195969195","TLE_LINE2":"2 48661  53.0562 293.6261 0001739  57.2816 302.8341 15.06391214 40171","TIME_SYSTEM":"UTC","COUNTRY_CODE":"US","EPHEMERIS_TYPE":"0","EPOCH":"2022-02-14T16:09:46.531872","MEAN_ANOMALY":"302.8341","CLASSIFICATION_TYPE":"U","NORAD_CAT_ID":"48661"},{"ECCENTRICITY":"0.00015920","OBJECT_ID":"2021-044AA","RCS_SIZE":"LARGE","PERIAPSIS":"546.220","MEAN_MOTION_DOT":"0.00003455","REV_AT_EPOCH":"4018","LAUNCH_DATE":"2021-05-26","TLE_LINE1":"1 48662U 21044AA  22045.73614274  .00003455  00000-0  25093-3 0  9993","OBJECT_TYPE":"PAYLOAD","CENTER_NAME":"EARTH","SEMIMAJOR_AXIS":"6925.457","PERIOD":"95.594","MEAN_MOTION_DDOT":"0.0000000000000","FILE":"3300727","OBJECT_NAME":"STARLINK-2726","BSTAR":"0.00025093000000","ARG_OF_PERICENTER":"71.7032","MEAN_ELEMENT_THEORY":"SGP4","INCLINATION":"53.0540","ELEMENT_SET_NO":"999","MEAN_MOTION":"15.06364490","REF_FRAME":"TEME","SITE":"AFETR","APOAPSIS":"548.425","TLE_LINE2":"2 48662  53.0540 293.3531 0001592  71.7032 288.4130 15.06364490 40185","RA_OF_ASC_NODE":"293.3531","GP_ID":"195967945","DECAY_DATE":null,"MEAN_ANOMALY":"288.4130","EPOCH":"2022-02-14T17:40:02.732736","EPHEMERIS_TYPE":"0","COUNTRY_CODE":"US","TIME_SYSTEM":"UTC","CLASSIFICATION_TYPE":"U","NORAD_CAT_ID":"48662"},{"BSTAR":"0.00051152000000","FILE":"3300472","OBJECT_NAME":"STARLINK-2667","PERIOD":"95.594","SEMIMAJOR_AXIS":"6925.446","CENTER_NAME":"EARTH","OBJECT_TYPE":"PAYLOAD","MEAN_MOTION_DDOT":"0.0000000000000","REV_AT_EPOCH":"4013","LAUNCH_DATE":"2021-05-26","TLE_LINE1":"1 48663U 21044AB  22045.40070536  .00007339  00000-0  51152-3 0  9995","PERIAPSIS":"546.280","MEAN_MOTION_DOT":"0.00007339","ECCENTRICITY":"0.00014890","RCS_SIZE":"LARGE","OBJECT_ID":"2021-044AB","NORAD_CAT_ID":"48663","CLASSIFICATION_TYPE":"U","MEAN_ANOMALY":"294.5968","EPHEMERIS_TYPE":"0","COUNTRY_CODE":"US","TIME_SYSTEM":"UTC","EPOCH":"2022-02-14T09:37:00.943104","GP_ID":"195938211","RA_OF_ASC_NODE":"294.8449","TLE_LINE2":"2 48663  53.0551 294.8449 0001489  65.5176 294.5968 15.06368200 40132","DECAY_DATE":null,"MEAN_MOTION":"15.06368200","REF_FRAME":"TEME","APOAPSIS":"548.342","SITE":"AFETR","ELEMENT_SET_NO":"999","ARG_OF_PERICENTER":"65.5176","INCLINATION":"53.0551","MEAN_ELEMENT_THEORY":"SGP4"},{"FILE":"3300727","OBJECT_NAME":"STARLINK-2709","OBJECT_TYPE":"PAYLOAD","CENTER_NAME":"EARTH","PERIOD":"95.591","SEMIMAJOR_AXIS":"6925.310","MEAN_MOTION_DDOT":"0.0000000000000","BSTAR":"0.00083794000000","ECCENTRICITY":"0.00014860","OBJECT_ID":"2021-044AC","RCS_SIZE":"LARGE","LAUNCH_DATE":"2021-05-26","REV_AT_EPOCH":"4019","TLE_LINE1":"1 48664U 21044AC  22045.79508581  .00012226  00000-0  83794-3 0  9992","PERIAPSIS":"546.146","MEAN_MOTION_DOT":"0.00012226","MEAN_ANOMALY":"295.7736","EPOCH":"2022-02-14T19:04:55.413984","COUNTRY_CODE":"US","TIME_SYSTEM":"UTC","EPHEMERIS_TYPE":"0","NORAD_CAT_ID":"48664","CLASSIFICATION_TYPE":"U","ELEMENT_SET_NO":"999","ARG_OF_PERICENTER":"64.3407","MEAN_ELEMENT_THEORY":"SGP4","INCLINATION":"53.0556","TLE_LINE2":"2 48664  53.0556 293.0896 0001486  64.3407 295.7736 15.06412578 40196","GP_ID":"195969446","RA_OF_ASC_NODE":"293.0896","DECAY_DATE":null,"REF_FRAME":"TEME","MEAN_MOTION":"15.06412578","SITE":"AFETR","APOAPSIS":"548.204"},{"RCS_SIZE":"LARGE","OBJECT_ID":"2021-044AD","ECCENTRICITY":"0.00014180","TLE_LINE1":"1 48665U 21044AD  22045.67621695  .00008448  00000-0  58569-3 0  9995","LAUNCH_DATE":"2021-05-26","REV_AT_EPOCH":"4017","MEAN_MOTION_DOT":"0.00008448","PERIAPSIS":"546.293","OBJECT_NAME":"STARLINK-2653","FILE":"3300727","MEAN_MOTION_DDOT":"0.0000000000000","SEMIMAJOR_AXIS":"6925.410","PERIOD":"95.593","CENTER_NAME":"EARTH","OBJECT_TYPE":"PAYLOAD","BSTAR":"0.00058569000000","ELEMENT_SET_NO":"999","INCLINATION":"53.0557","MEAN_ELEMENT_THEORY":"SGP4","ARG_OF_PERICENTER":"59.7508","DECAY_DATE":null,"GP_ID":"195969696","RA_OF_ASC_NODE":"293.6210","TLE_LINE2":"2 48665  53.0557 293.6210 0001418  59.7508 300.3621 15.06380046 40177","APOAPSIS":"548.257","SITE":"AFETR","REF_FRAME":"TEME","MEAN_MOTION":"15.06380046","COUNTRY_CODE":"US","EPHEMERIS_TYPE":"0","TIME_SYSTEM":"UTC","EPOCH":"2022-02-14T16:13:45.144480","MEAN_ANOMALY":"300.3621","NORAD_CAT_ID":"48665","CLASSIFICATION_TYPE":"U"},{"TLE_LINE2":"2 48666  53.0549 294.9493 0001688  62.7792 297.3369 15.06375131 40122","RA_OF_ASC_NODE":"294.9493","GP_ID":"195938960","DECAY_DATE":null,"REF_FRAME":"TEME","MEAN_MOTION":"15.06375131","SITE":"AFETR","APOAPSIS":"548.459","ELEMENT_SET_NO":"999","ARG_OF_PERICENTER":"62.7792","MEAN_ELEMENT_THEORY":"SGP4","INCLINATION":"53.0549","NORAD_CAT_ID":"48666","CLASSIFICATION_TYPE":"U","MEAN_ANOMALY":"297.3369","EPOCH":"2022-02-14T09:03:46.774944","COUNTRY_CODE":"US","TIME_SYSTEM":"UTC","EPHEMERIS_TYPE":"0","LAUNCH_DATE":"2021-05-26","REV_AT_EPOCH":"4012","TLE_LINE1":"1 48666U 21044AE  22045.37762471  .00000006  00000-0  19342-4 0  9990","PERIAPSIS":"546.121","MEAN_MOTION_DOT":"0.00000006","ECCENTRICITY":"0.00016880","OBJECT_ID":"2021-044AE","RCS_SIZE":"LARGE","BSTAR":"0.00001934200000","FILE":"3300472","OBJECT_NAME":"STARLINK-2666","CENTER_NAME":"EARTH","OBJECT_TYPE":"PAYLOAD","PERIOD":"95.594","SEMIMAJOR_AXIS":"6925.425","MEAN_MOTION_DDOT":"0.0000000000000"},{"NORAD_CAT_ID":"48667","CLASSIFICATION_TYPE":"U","MEAN_ANOMALY":"292.7323","COUNTRY_CODE":"US","TIME_SYSTEM":"UTC","EPHEMERIS_TYPE":"0","EPOCH":"2022-02-14T18:59:36.994560","GP_ID":"195968696","RA_OF_ASC_NODE":"293.0918","TLE_LINE2":"2 48667  53.0549 293.0918 0001575  67.3833 292.7323 15.06414094 40195","DECAY_DATE":null,"REF_FRAME":"TEME","MEAN_MOTION":"15.06414094","APOAPSIS":"548.261","SITE":"AFETR","ELEMENT_SET_NO":"999","ARG_OF_PERICENTER":"67.3833","INCLINATION":"53.0549","MEAN_ELEMENT_THEORY":"SGP4","BSTAR":"0.00083649000000","FILE":"3300727","OBJECT_NAME":"STARLINK-2735","PERIOD":"95.591","SEMIMAJOR_AXIS":"6925.305","OBJECT_TYPE":"PAYLOAD","CENTER_NAME":"EARTH","MEAN_MOTION_DDOT":"0.0000000000000","REV_AT_EPOCH":"4019","LAUNCH_DATE":"2021-05-26","TLE_LINE1":"1 48667U 21044AF  22045.79140040  .00012205  00000-0  83649-3 0  9993","PERIAPSIS":"546.080","MEAN_MOTION_DOT":"0.00012205","ECCENTRICITY":"0.00015750","RCS_SIZE":"LARGE","OBJECT_ID":"2021-044AF"}];
